{
  "type": "FeatureCollection",
  "features": [
    {
      "type": "Feature",
      "properties": {
        "norad_id": 24946,
        "name": "IRIDIUM 33",
        "group": "iridium-33-debris",
        "lat": 47.82506741070304,
        "lon": -112.08678828642454,
        "alt_km": 771.7587909799413,
        "timestamp": "2025-12-03T22:42:33.017465+00:00",
        "meta_object_name": "IRIDIUM 33",
        "meta_object_id": "1997-051C",
        "meta_epoch": "2025-12-03T12:03:16.669728",
        "meta_mean_motion": 14.35026317,
        "meta_eccentricity": 0.0006135,
        "meta_inclination": 86.3871,
        "meta_ra_of_asc_node": 72.0986,
        "meta_arg_of_pericenter": 236.1156,
        "meta_mean_anomaly": 123.9457,
        "meta_ephemeris_type": 0,
        "meta_classification_type": "U",
        "meta_norad_cat_id": 24946,
        "meta_element_set_no": 999,
        "meta_rev_at_epoch": 47702,
        "meta_bstar": 0.00019569,
        "meta_mean_motion_dot": 5.77e-06,
        "meta_mean_motion_ddot": 0,
        "tle_line1": "1 24946U 97051C   25337.50227627  .00000577  00000+0  19569-3 0  9999",
        "tle_line2": "2 24946  86.3871  72.0986 0006135 236.1156 123.9457 14.35026317477024"
      },
      "geometry": {
        "type": "Point",
        "coordinates": [
          -112.08678828642454,
          47.82506741070304
        ]
      }
    },
    {
      "type": "Feature",
      "properties": {
        "norad_id": 33773,
        "name": "IRIDIUM 33 DEB",
        "group": "iridium-33-debris",
        "lat": -9.671708868024481,
        "lon": -115.07030776466546,
        "alt_km": 744.279385548366,
        "timestamp": "2025-12-03T22:42:33.017512+00:00",
        "meta_object_name": "IRIDIUM 33 DEB",
        "meta_object_id": "1997-051L",
        "meta_epoch": "2025-12-02T19:12:34.458048",
        "meta_mean_motion": 14.43219569,
        "meta_eccentricity": 0.00114308,
        "meta_inclination": 86.4014,
        "meta_ra_of_asc_node": 64.8005,
        "meta_arg_of_pericenter": 177.1469,
        "meta_mean_anomaly": 182.9799,
        "meta_ephemeris_type": 0,
        "meta_classification_type": "U",
        "meta_norad_cat_id": 33773,
        "meta_element_set_no": 999,
        "meta_rev_at_epoch": 88204,
        "meta_bstar": 0.00045843518,
        "meta_mean_motion_dot": 1.562e-05,
        "meta_mean_motion_ddot": 0,
        "tle_line1": "1 33773U 97051L   25336.80039882  .00001562  00000+0  45844-3 0  9993",
        "tle_line2": "2 33773  86.4014  64.8005 0011430 177.1469 182.9799 14.43219569882046"
      },
      "geometry": {
        "type": "Point",
        "coordinates": [
          -115.07030776466546,
          -9.671708868024481
        ]
      }
    },
    {
      "type": "Feature",
      "properties": {
        "norad_id": 33775,
        "name": "IRIDIUM 33 DEB",
        "group": "iridium-33-debris",
        "lat": -30.396329881557953,
        "lon": 51.16960878021422,
        "alt_km": 767.7096880456329,
        "timestamp": "2025-12-03T22:42:33.017528+00:00",
        "meta_object_name": "IRIDIUM 33 DEB",
        "meta_object_id": "1997-051N",
        "meta_epoch": "2025-12-03T04:47:18.934080",
        "meta_mean_motion": 14.41433702,
        "meta_eccentricity": 0.001319,
        "meta_inclination": 86.3643,
        "meta_ra_of_asc_node": 53.6257,
        "meta_arg_of_pericenter": 185.0257,
        "meta_mean_anomaly": 232.2988,
        "meta_ephemeris_type": 0,
        "meta_classification_type": "U",
        "meta_norad_cat_id": 33775,
        "meta_element_set_no": 999,
        "meta_rev_at_epoch": 88003,
        "meta_bstar": 0.00051484,
        "meta_mean_motion_dot": 1.69e-05,
        "meta_mean_motion_ddot": 0,
        "tle_line1": "1 33775U 97051N   25337.19952470  .00001690  00000+0  51484-3 0  9994",
        "tle_line2": "2 33775  86.3643  53.6257 0013190 185.0257 232.2988 14.41433702880039"
      },
      "geometry": {
        "type": "Point",
        "coordinates": [
          51.16960878021422,
          -30.396329881557953
        ]
      }
    },
    {
      "type": "Feature",
      "properties": {
        "norad_id": 33776,
        "name": "IRIDIUM 33 DEB",
        "group": "iridium-33-debris",
        "lat": -58.31693972187564,
        "lon": 78.62000083226512,
        "alt_km": 770.0638769712741,
        "timestamp": "2025-12-03T22:42:33.017541+00:00",
        "meta_object_name": "IRIDIUM 33 DEB",
        "meta_object_id": "1997-051P",
        "meta_epoch": "2025-12-03T09:56:12.237792",
        "meta_mean_motion": 14.38204962,
        "meta_eccentricity": 0.0013357,
        "meta_inclination": 86.4037,
        "meta_ra_of_asc_node": 84.6918,
        "meta_arg_of_pericenter": 222.6678,
        "meta_mean_anomaly": 205.0874,
        "meta_ephemeris_type": 0,
        "meta_classification_type": "U",
        "meta_norad_cat_id": 33776,
        "meta_element_set_no": 999,
        "meta_rev_at_epoch": 87948,
        "meta_bstar": 0.00046443,
        "meta_mean_motion_dot": 1.43e-05,
        "meta_mean_motion_ddot": 0,
        "tle_line1": "1 33776U 97051P   25337.41403053  .00001430  00000+0  46443-3 0  9999",
        "tle_line2": "2 33776  86.4037  84.6918 0013357 222.6678 205.0874 14.38204962879485"
      },
      "geometry": {
        "type": "Point",
        "coordinates": [
          78.62000083226512,
          -58.31693972187564
        ]
      }
    },
    {
      "type": "Feature",
      "properties": {
        "norad_id": 33777,
        "name": "IRIDIUM 33 DEB",
        "group": "iridium-33-debris",
        "lat": -80.25717419108138,
        "lon": -119.33684613766016,
        "alt_km": 712.0228146415857,
        "timestamp": "2025-12-03T22:42:33.017553+00:00",
        "meta_object_name": "IRIDIUM 33 DEB",
        "meta_object_id": "1997-051Q",
        "meta_epoch": "2025-12-03T11:36:48.686976",
        "meta_mean_motion": 14.55494703,
        "meta_eccentricity": 0.0005156,
        "meta_inclination": 86.3801,
        "meta_ra_of_asc_node": 39.2292,
        "meta_arg_of_pericenter": 292.6245,
        "meta_mean_anomaly": 67.4417,
        "meta_ephemeris_type": 0,
        "meta_classification_type": "U",
        "meta_norad_cat_id": 33777,
        "meta_element_set_no": 999,
        "meta_rev_at_epoch": 88399,
        "meta_bstar": 0.0014013,
        "meta_mean_motion_dot": 6.119e-05,
        "meta_mean_motion_ddot": 0,
        "tle_line1": "1 33777U 97051Q   25337.48389684  .00006119  00000+0  14013-2 0  9996",
        "tle_line2": "2 33777  86.3801  39.2292 0005156 292.6245  67.4417 14.55494703883997"
      },
      "geometry": {
        "type": "Point",
        "coordinates": [
          -119.33684613766016,
          -80.25717419108138
        ]
      }
    },
    {
      "type": "Feature",
      "properties": {
        "norad_id": 33850,
        "name": "IRIDIUM 33 DEB",
        "group": "iridium-33-debris",
        "lat": -70.57301868760219,
        "lon": 23.51090482386519,
        "alt_km": 760.3486467238408,
        "timestamp": "2025-12-03T22:42:33.017564+00:00",
        "meta_object_name": "IRIDIUM 33 DEB",
        "meta_object_id": "1997-051T",
        "meta_epoch": "2025-12-03T11:40:49.182240",
        "meta_mean_motion": 14.42113572,
        "meta_eccentricity": 0.001124,
        "meta_inclination": 86.3424,
        "meta_ra_of_asc_node": 34.1578,
        "meta_arg_of_pericenter": 190.1398,
        "meta_mean_anomaly": 234.6586,
        "meta_ephemeris_type": 0,
        "meta_classification_type": "U",
        "meta_norad_cat_id": 33850,
        "meta_element_set_no": 999,
        "meta_rev_at_epoch": 88019,
        "meta_bstar": 0.00061974,
        "meta_mean_motion_dot": 2.057e-05,
        "meta_mean_motion_ddot": 0,
        "tle_line1": "1 33850U 97051T   25337.48668035  .00002057  00000+0  61974-3 0  9994",
        "tle_line2": "2 33850  86.3424  34.1578 0011240 190.1398 234.6586 14.42113572880195"
      },
      "geometry": {
        "type": "Point",
        "coordinates": [
          23.51090482386519,
          -70.57301868760219
        ]
      }
    },
    {
      "type": "Feature",
      "properties": {
        "norad_id": 33853,
        "name": "IRIDIUM 33 DEB",
        "group": "iridium-33-debris",
        "lat": -53.53560467092604,
        "lon": 179.10072504808056,
        "alt_km": 772.5566938819375,
        "timestamp": "2025-12-03T22:42:33.017575+00:00",
        "meta_object_name": "IRIDIUM 33 DEB",
        "meta_object_id": "1997-051W",
        "meta_epoch": "2025-12-03T12:03:16.668864",
        "meta_mean_motion": 13.98961391,
        "meta_eccentricity": 0.0206807,
        "meta_inclination": 86.0004,
        "meta_ra_of_asc_node": 353.8627,
        "meta_arg_of_pericenter": 264.3782,
        "meta_mean_anomaly": 255.9822,
        "meta_ephemeris_type": 0,
        "meta_classification_type": "U",
        "meta_norad_cat_id": 33853,
        "meta_element_set_no": 999,
        "meta_rev_at_epoch": 85216,
        "meta_bstar": 0.0030737,
        "meta_mean_motion_dot": 5.345e-05,
        "meta_mean_motion_ddot": 0,
        "tle_line1": "1 33853U 97051W   25337.50227626  .00005345  00000+0  30737-2 0  9992",
        "tle_line2": "2 33853  86.0004 353.8627 0206807 264.3782 255.9822 13.98961391852166"
      },
      "geometry": {
        "type": "Point",
        "coordinates": [
          179.10072504808056,
          -53.53560467092604
        ]
      }
    }
  ]
}